H-2A R/B                
1 28932U 06002B   26179.39140451  .00007676  00000+0  36714-3 0  9993
2 28932  98.2569 336.2353 0049924 223.4552 136.2741 15.18206735111220
RESURS-DK 1             
1 29228U 06021A   26179.53717052  .00002120  00000+0  12497-3 0  9997
2 29228  69.9339 310.1726 0006702 286.1533  73.8895 15.13262404104291
CZ-4B R/B               
1 29507U 06046C   26179.59210598  .00003887  00000+0  19306-3 0  9990
2 29507  97.5448 224.1640 0031194 241.0723 118.7381 15.17864284 76860
CZ-2C R/B               
1 31114U 07010B   26179.54301269  .00000065  00000+0  49015-4 0  9996
2 31114  98.4109 287.3391 0058361 332.9739  26.8402 14.20278450995452
COSMO-SKYMED 1          
1 31598U 07023A   26179.63079051  .00002282  00000+0  20275-3 0  9996
2 31598  97.8858  11.5832 0001700  87.1396 273.0020 14.97160117 31505
COSMOS 2428             
1 31792U 07029A   26179.61263634  .00000009  00000+0  30319-4 0  9994
2 31792  70.9374 330.4873 0007124 113.2039 246.9833 14.12928033979761
SL-16 R/B               
1 31793U 07029B   26179.62365988 -.00000246  00000+0 -10282-3 0  9992
2 31793  70.9770 299.1875 0002456 263.1758 107.8611 14.14854245981061
KORONAS-FOTON           
1 33504U 09003A   26179.60086520  .00011822  00000+0  24122-3 0  9996
2 33504  82.4285 160.3508 0012522 112.1381 248.1198 15.45957494962865
CZ-2C R/B               
1 37731U 11030B   26179.46477597  .00001221  00000+0  15910-3 0  9994
2 37731  97.8660 134.6476 0052078 351.5377 119.5119 14.81497861806496
H-2A R/B                
1 38341U 12025E   26179.52937771  .00002393  00000+0  21705-3 0  9999
2 38341  98.4820 155.6099 0042881 311.0293  48.7222 14.95767753764780
SHIJIAN-16 (SJ-16)      
1 39358U 13057A   26179.63397875  .00000377  00000+0  39409-4 0  9992
2 39358  74.9728 335.0015 0016436 204.0755 155.9667 14.92622054688058
SL-4 R/B                
1 39679U 14021B   26179.40480639  .00010055  00000+0  20784-3 0  9995
2 39679  51.6034 155.8065 0090649 146.8937 213.7767 15.42169393673340
ALOS-2                  
1 39766U 14029A   26179.56912500  .00001942  00000+0  26683-3 0  9993
2 39766  97.9226 276.5699 0001634  89.7505 270.3894 14.79472464653263
YAOGAN-29               
1 41038U 15069A   26179.64735271  .00000977  00000+0  12659-3 0  9995
2 41038  98.0026 208.2980 0002014  37.3786 322.7567 14.83096290572326
ASTRO-H (HITOMI)        
1 41337U 16012A   26179.53209878  .00002571  00000+0  14630-3 0  9996
2 41337  31.0006   0.9167 0009671   6.7670 353.3098 15.10560402569007
HXMT (HUIYAN)           
1 42758U 17034A   26179.31645475  .00004205  00000+0  20867-3 0  9997
2 42758  43.0138 121.0657 0032271 217.7560 142.1024 15.18552277499359
SAOCOM 1A               
1 43641U 18076A   26179.61284825  .00000543  00000+0  74771-4 0  9992
2 43641  97.8881   6.1953 0001556  82.5131 277.6259 14.82156903417797
H-2A R/B                
1 43682U 18084L   26179.58908163  .00019832  00000+0  41042-3 0  9995
2 43682  98.8565  60.9737 0022139   1.2846 358.8452 15.45588818422888
SAOCOM 1B               
1 46265U 20059A   26179.64403160 -.00000162  00000+0 -13748-4 0  9995
2 46265  97.8884   5.3216 0001580  81.4442 278.6950 14.82145759315184
CSS (TIANHE)            
1 48274U 21035A   26179.62069862  .00019914  00000+0  23071-3 0  9999
2 48274  41.4685 252.3977 0008338 172.7064 187.3897 15.61304526294954
COSMOS 2550             
1 48865U 21056A   26179.63103439  .00004837  00000+0  15281-3 0  9990
2 48865  67.1438  65.2898 0008330 269.7450  90.2750 15.33819519280476
CZ-2C R/B               
1 52794U 22058K   26179.49958381  .00035095  00000+0  37871-3 0  9996
2 52794  50.1855 104.6230 0031755 314.1443  45.6920 15.62633916227414
CZ-2C R/B               
1 54039U 22132E   26179.54572324  .00058432  00000+0  42795-3 0  9999
2 54039  97.2886 187.0869 0013731  47.8025 312.4402 15.72887588207737
GSLV R/B                
1 54149U 22138AN  26179.61305436  .00002819  00000+0  23931-3 0  9992
2 54149  87.3813 129.1475 0024049 105.9466 254.4418 14.97309651200526
XRISM                   
1 57800U 23137A   26179.60743881  .00004400  00000+0  24054-3 0  9993
2 57800  31.0026 285.6227 0007808  78.9062 281.2455 15.12561031154597
ACS3                    
1 59588U 24077B   26178.53853056  .00000810  00000+0  60327-3 0  9993
2 59588  97.1675  95.0246 0098109  55.4134 305.6240 13.94525140109483
CZ-8A R/B               
1 66004U 25231K   26179.51139970  .00000003  00000+0  59336-4 0  9991
2 66004  50.0055 351.1379 0116492 263.8626  94.9007 14.30157781 36564
SZ-21 MODULE            
1 66515U 25246C   26179.48914125  .00042023  00000+0  24764-3 0  9997
2 66515  41.4709 236.8874 0004928  83.9244 276.2163 15.77365828 35525
