OBJECT_NAME,OBJECT_ID,EPOCH,MEAN_MOTION,ECCENTRICITY,INCLINATION,RA_OF_ASC_NODE,ARG_OF_PERICENTER,MEAN_ANOMALY,EPHEMERIS_TYPE,CLASSIFICATION_TYPE,NORAD_CAT_ID,ELEMENT_SET_NO,REV_AT_EPOCH,BSTAR,MEAN_MOTION_DOT,MEAN_MOTION_DDOT
H-2A R/B,2006-002B,2026-06-28T09:23:37.349664,15.18206735,.00499244,98.2569,336.2353,223.4552,136.2741,0,U,28932,999,11122,.36714298E-3,.7676E-4,0
RESURS-DK 1,2006-021A,2026-06-28T12:53:31.532928,15.13262404,.00067027,69.9339,310.1726,286.1533,73.8895,0,U,29228,999,10429,.12496743E-3,.212E-4,0
CZ-4B R/B,2006-046C,2026-06-28T14:12:37.956672,15.17864284,.00311943,97.5448,224.1640,241.0723,118.7381,0,U,29507,999,7686,.19306003E-3,.3887E-4,0
CZ-2C R/B,2007-010B,2026-06-28T13:01:56.296416,14.20278450,.00583614,98.4109,287.3391,332.9739,26.8402,0,U,31114,999,99545,.49014982E-4,.65E-6,0
COSMO-SKYMED 1,2007-023A,2026-06-28T15:08:20.300064,14.97160117,.00017002,97.8858,11.5832,87.1396,273.0020,0,U,31598,999,3150,.20274563E-3,.2282E-4,0
COSMOS 2428,2007-029A,2026-06-28T14:42:11.779776,14.12928033,.0007124,70.9374,330.4873,113.2039,246.9833,0,U,31792,999,97976,.3031944E-4,.9E-7,0
SL-16 R/B,2007-029B,2026-06-28T14:58:04.213632,14.14854245,.00024564,70.9770,299.1875,263.1758,107.8611,0,U,31793,999,98106,-.10281632E-3,-.246E-5,0
KORONAS-FOTON,2009-003A,2026-06-28T14:25:14.753280,15.45957494,.00125222,82.4285,160.3508,112.1381,248.1198,0,U,33504,999,96286,.24122363E-3,.11822E-3,0
CZ-2C R/B,2011-030B,2026-06-28T11:09:16.643808,14.81497861,.00520787,97.8660,134.6476,351.5377,119.5119,0,U,37731,999,80649,.15909997E-3,.1221E-4,0
H-2A R/B,2012-025E,2026-06-28T12:42:18.234144,14.95767753,.00428816,98.4820,155.6099,311.0293,48.7222,0,U,38341,999,76478,.21705419E-3,.2393E-4,0
SHIJIAN-16 (SJ-16),2013-057A,2026-06-28T15:12:55.764000,14.92622054,.00164362,74.9728,335.0015,204.0755,155.9667,0,U,39358,999,68805,.39409411E-4,.377E-5,0
SL-4 R/B,2014-021B,2026-06-28T09:42:55.272096,15.42169393,.00906494,51.6034,155.8065,146.8937,213.7767,0,U,39679,999,67334,.20784343E-3,.10055E-3,0
ALOS-2,2014-029A,2026-06-28T13:39:32.400000,14.79472464,.00016346,97.9226,276.5699,89.7505,270.3894,0,U,39766,999,65326,.26682779E-3,.1942E-4,0
YAOGAN-29,2015-069A,2026-06-28T15:32:11.274144,14.83096290,.00020145,98.0026,208.2980,37.3786,322.7567,0,U,41038,999,57232,.12659054E-3,.977E-5,0
ASTRO-H (HITOMI),2016-012A,2026-06-28T12:46:13.334592,15.10560402,.00096717,31.0006,0.9167,6.7670,353.3098,0,U,41337,999,56900,.14630316E-3,.2571E-4,0
HXMT (HUIYAN),2017-034A,2026-06-28T07:35:41.690400,15.18552277,.00322713,43.0138,121.0657,217.7560,142.1024,0,U,42758,999,49935,.20866833E-3,.4205E-4,0
SAOCOM 1A,2018-076A,2026-06-28T14:42:30.088800,14.82156903,.00015567,97.8881,6.1953,82.5131,277.6259,0,U,43641,999,41779,.74771438E-4,.543E-5,0
H-2A R/B,2018-084L,2026-06-28T14:08:16.652832,15.45588818,.00221395,98.8565,60.9737,1.2846,358.8452,0,U,43682,999,42288,.41041501E-3,.19832E-3,0
SAOCOM 1B,2020-059A,2026-06-28T15:27:24.330240,14.82145759,.000158,97.8884,5.3216,81.4442,278.6950,0,U,46265,999,31518,-.1374847E-4,-.162E-5,0
CSS (TIANHE),2021-035A,2026-06-28T14:53:48.360768,15.61304526,.00083389,41.4685,252.3977,172.7064,187.3897,0,U,48274,999,29495,.23071257E-3,.19914E-3,0
COSMOS 2550,2021-056A,2026-06-28T15:08:41.371296,15.33819519,.00083301,67.1438,65.2898,269.7450,90.2750,0,U,48865,999,28047,.15280865E-3,.4837E-4,0
CZ-2C R/B,2022-058K,2026-06-28T11:59:24.041184,15.62633916,.00317556,50.1855,104.6230,314.1443,45.6920,0,U,52794,999,22741,.37871198E-3,.35095E-3,0
CZ-2C R/B,2022-132E,2026-06-28T13:05:50.487936,15.72887588,.00137315,97.2886,187.0869,47.8025,312.4402,0,U,54039,999,20773,.42795113E-3,.58432E-3,0
GSLV R/B,2022-138AN,2026-06-28T14:42:47.896704,14.97309651,.00240499,87.3813,129.1475,105.9466,254.4418,0,U,54149,999,20052,.2393078E-3,.2819E-4,0
XRISM,2023-137A,2026-06-28T14:34:42.713184,15.12561031,.00078083,31.0026,285.6227,78.9062,281.2455,0,U,57800,999,15459,.24053994E-3,.44E-4,0
ACS3,2024-077B,2026-06-27T12:55:29.040384,13.94525140,.00981095,97.1675,95.0246,55.4134,305.6240,0,U,59588,999,10948,.6032734E-3,.81E-5,0
CZ-8A R/B,2025-231K,2026-06-28T12:16:24.934080,14.30157781,.01164929,50.0055,351.1379,263.8626,94.9007,0,U,66004,999,3656,.59335882E-4,.3E-7,0
SZ-21 MODULE,2025-246C,2026-06-28T11:44:21.804000,15.77365828,.00049281,41.4709,236.8874,83.9244,276.2163,0,U,66515,999,3552,.24764307E-3,.42023E-3,0
